ORBCOMM FM37            
1 33064U 08031E   24165.52204000  .00002194  00000+0  33967-3 0  9995
2 33064  48.4407 292.2820 0006643 241.1256 244.0141 14.76656160859820
ORBCOMM FM40            
1 33065U 08031F   24165.54865094  .00002549  00000+0  37775-3 0  9999
2 33065  48.4426 281.1955 0008042 249.6622 201.8444 14.78028969859990
VESSELSAT 1             
1 37840U 11058C   24165.37182178  .00000397  00000+0  72514-4 0  9993
2 37840  19.9599 165.2778 0013865  90.2124 269.9869 14.11165323654374
ORBCOMM FM109           
1 40086U 14040A   24164.84173698  .00001348  00000+0  33598-3 0  9996
2 40086  47.0046 318.8534 0001069  51.1657 308.9324 14.56730705527184
ORBCOMM FM107           
1 40087U 14040B   24164.73856862  .00001289  00000+0  32282-3 0  9999
2 40087  47.0065 320.3086 0001009 345.1691  14.9164 14.56739938527244
ORBCOMM FM106           
1 40088U 14040C   24165.17498075  .00001332  00000+0  26661-3 0  9990
2 40088  47.0592 168.8899 0017081 155.6918 204.4781 14.67177818529451
ORBCOMM FM111           
1 40089U 14040D   24165.13738043  .00003254  00000+0  42748-3 0  9998
2 40089  47.0047  66.0921 0033317 230.1744 129.6218 14.82038636535404
ORBCOMM FM104           
1 40090U 14040E   24165.49903107  .00000865  00000+0  23623-3 0  9990
2 40090  47.0069 346.0203 0017228 318.8391  41.1193 14.55224261526994
